CCSDS_OMM_VERS = 2.0
CREATION_DATE  = 
ORIGINATOR     = 

OBJECT_NAME    = STARLINK-35658
OBJECT_ID      = 2025-237N
CENTER_NAME    = EARTH
REF_FRAME      = TEME
TIME_SYSTEM    = UTC
MEAN_ELEMENT_THEORY = SGP/SGP4

EPOCH          = 2025-11-19T08:50:40.472736
MEAN_MOTION    = 15.49335063
ECCENTRICITY   = .00013635
INCLINATION    = 53.1600
RA_OF_ASC_NODE = 197.4580
ARG_OF_PERICENTER = 87.4361
MEAN_ANOMALY   = 272.6804

EPHEMERIS_TYPE = 0
CLASSIFICATION_TYPE = U
NORAD_CAT_ID   = 66126
ELEMENT_SET_NO = 999
REV_AT_EPOCH   = 564
BSTAR          = .12353309E-2
MEAN_MOTION_DOT = .68928E-3
MEAN_MOTION_DDOT = 0

CCSDS_OMM_VERS = 2.0
CREATION_DATE  = 
ORIGINATOR     = 

OBJECT_NAME    = STARLINK-35629
OBJECT_ID      = 2025-237P
CENTER_NAME    = EARTH
REF_FRAME      = TEME
TIME_SYSTEM    = UTC
MEAN_ELEMENT_THEORY = SGP/SGP4

EPOCH          = 2025-11-20T00:19:05.499840
MEAN_MOTION    = 15.49354741
ECCENTRICITY   = .00007204
INCLINATION    = 53.1596
RA_OF_ASC_NODE = 194.3727
ARG_OF_PERICENTER = 116.6150
MEAN_ANOMALY   = 243.4933

EPHEMERIS_TYPE = 0
CLASSIFICATION_TYPE = U
NORAD_CAT_ID   = 66127
ELEMENT_SET_NO = 999
REV_AT_EPOCH   = 574
BSTAR          = .11768338E-2
MEAN_MOTION_DOT = .6566E-3
MEAN_MOTION_DDOT = 0

CCSDS_OMM_VERS = 2.0
CREATION_DATE  = 
ORIGINATOR     = 

OBJECT_NAME    = STARLINK-35612
OBJECT_ID      = 2025-237Q
CENTER_NAME    = EARTH
REF_FRAME      = TEME
TIME_SYSTEM    = UTC
MEAN_ELEMENT_THEORY = SGP/SGP4

EPOCH          = 2025-11-19T21:57:11.609280
MEAN_MOTION    = 15.39627368
ECCENTRICITY   = .00012205
INCLINATION    = 53.1595
RA_OF_ASC_NODE = 195.1803
ARG_OF_PERICENTER = 92.9555
MEAN_ANOMALY   = 267.1589

EPHEMERIS_TYPE = 0
CLASSIFICATION_TYPE = U
NORAD_CAT_ID   = 66128
ELEMENT_SET_NO = 999
REV_AT_EPOCH   = 572
BSTAR          = .89720006E-3
MEAN_MOTION_DOT = .35664E-3
MEAN_MOTION_DDOT = 0

CCSDS_OMM_VERS = 2.0
CREATION_DATE  = 
ORIGINATOR     = 

OBJECT_NAME    = STARLINK-35632
OBJECT_ID      = 2025-237R
CENTER_NAME    = EARTH
REF_FRAME      = TEME
TIME_SYSTEM    = UTC
MEAN_ELEMENT_THEORY = SGP/SGP4

EPOCH          = 2025-11-20T00:57:27.565632
MEAN_MOTION    = 15.39642320
ECCENTRICITY   = .00008044
INCLINATION    = 53.1632
RA_OF_ASC_NODE = 194.5393
ARG_OF_PERICENTER = 88.0667
MEAN_ANOMALY   = 272.0430

EPHEMERIS_TYPE = 0
CLASSIFICATION_TYPE = U
NORAD_CAT_ID   = 66129
ELEMENT_SET_NO = 999
REV_AT_EPOCH   = 574
BSTAR          = .98118071E-3
MEAN_MOTION_DOT = .39077E-3
MEAN_MOTION_DDOT = 0

CCSDS_OMM_VERS = 2.0
CREATION_DATE  = 
ORIGINATOR     = 

OBJECT_NAME    = STARLINK-35637
OBJECT_ID      = 2025-237S
CENTER_NAME    = EARTH
REF_FRAME      = TEME
TIME_SYSTEM    = UTC
MEAN_ELEMENT_THEORY = SGP/SGP4

EPOCH          = 2025-11-20T08:00:01.999872
MEAN_MOTION    = 15.39608516
ECCENTRICITY   = .00010161
INCLINATION    = 53.1597
RA_OF_ASC_NODE = 193.1048
ARG_OF_PERICENTER = 85.7208
MEAN_ANOMALY   = 127.5598

EPHEMERIS_TYPE = 0
CLASSIFICATION_TYPE = U
NORAD_CAT_ID   = 66130
ELEMENT_SET_NO = 999
REV_AT_EPOCH   = 587
BSTAR          = .20528797E-3
MEAN_MOTION_DOT = .7817E-4
MEAN_MOTION_DDOT = 0

CCSDS_OMM_VERS = 2.0
CREATION_DATE  = 
ORIGINATOR     = 

OBJECT_NAME    = STARLINK-35630
OBJECT_ID      = 2025-237T
CENTER_NAME    = EARTH
REF_FRAME      = TEME
TIME_SYSTEM    = UTC
MEAN_ELEMENT_THEORY = SGP/SGP4

EPOCH          = 2025-11-20T08:00:01.999872
MEAN_MOTION    = 15.39609157
ECCENTRICITY   = .00009245
INCLINATION    = 53.1594
RA_OF_ASC_NODE = 193.0540
ARG_OF_PERICENTER = 97.1157
MEAN_ANOMALY   = 141.9121

EPHEMERIS_TYPE = 0
CLASSIFICATION_TYPE = U
NORAD_CAT_ID   = 66131
ELEMENT_SET_NO = 999
REV_AT_EPOCH   = 587
BSTAR          = .17648106E-3
MEAN_MOTION_DOT = .6664E-4
MEAN_MOTION_DDOT = 0

CCSDS_OMM_VERS = 2.0
CREATION_DATE  = 
ORIGINATOR     = 

OBJECT_NAME    = STARLINK-34412
OBJECT_ID      = 2025-237U
CENTER_NAME    = EARTH
REF_FRAME      = TEME
TIME_SYSTEM    = UTC
MEAN_ELEMENT_THEORY = SGP/SGP4

EPOCH          = 2025-11-20T08:00:01.999872
MEAN_MOTION    = 15.39610559
ECCENTRICITY   = .00012317
INCLINATION    = 53.1590
RA_OF_ASC_NODE = 193.0029
ARG_OF_PERICENTER = 101.6455
MEAN_ANOMALY   = 163.1397

EPHEMERIS_TYPE = 0
CLASSIFICATION_TYPE = U
NORAD_CAT_ID   = 66132
ELEMENT_SET_NO = 999
REV_AT_EPOCH   = 578
BSTAR          = .15009362E-3
MEAN_MOTION_DOT = .5607E-4
MEAN_MOTION_DDOT = 0

CCSDS_OMM_VERS = 2.0
CREATION_DATE  = 
ORIGINATOR     = 

OBJECT_NAME    = STARLINK-35520
OBJECT_ID      = 2025-237V
CENTER_NAME    = EARTH
REF_FRAME      = TEME
TIME_SYSTEM    = UTC
MEAN_ELEMENT_THEORY = SGP/SGP4

EPOCH          = 2025-11-20T08:00:01.999872
MEAN_MOTION    = 15.39622170
ECCENTRICITY   = .00009285
INCLINATION    = 53.1586
RA_OF_ASC_NODE = 192.9515
ARG_OF_PERICENTER = 131.1161
MEAN_ANOMALY   = 159.3566

EPHEMERIS_TYPE = 0
CLASSIFICATION_TYPE = U
NORAD_CAT_ID   = 66133
ELEMENT_SET_NO = 999
REV_AT_EPOCH   = 587
BSTAR          = .17658624E-3
MEAN_MOTION_DOT = .6671E-4
MEAN_MOTION_DDOT = 0

CCSDS_OMM_VERS = 2.0
CREATION_DATE  = 
ORIGINATOR     = 

OBJECT_NAME    = STARLINK-35525
OBJECT_ID      = 2025-237W
CENTER_NAME    = EARTH
REF_FRAME      = TEME
TIME_SYSTEM    = UTC
MEAN_ELEMENT_THEORY = SGP/SGP4

EPOCH          = 2025-11-20T08:00:01.999872
MEAN_MOTION    = 15.39591438
ECCENTRICITY   = .00009379
INCLINATION    = 53.1586
RA_OF_ASC_NODE = 192.9011
ARG_OF_PERICENTER = 101.7564
MEAN_ANOMALY   = 214.5513

EPHEMERIS_TYPE = 0
CLASSIFICATION_TYPE = U
NORAD_CAT_ID   = 66134
ELEMENT_SET_NO = 999
REV_AT_EPOCH   = 587
BSTAR          = .52972363E-3
MEAN_MOTION_DOT = .20827E-3
MEAN_MOTION_DDOT = 0

CCSDS_OMM_VERS = 2.0
CREATION_DATE  = 
ORIGINATOR     = 

OBJECT_NAME    = STARLINK-34852
OBJECT_ID      = 2025-237X
CENTER_NAME    = EARTH
REF_FRAME      = TEME
TIME_SYSTEM    = UTC
MEAN_ELEMENT_THEORY = SGP/SGP4

EPOCH          = 2025-11-20T08:00:01.999872
MEAN_MOTION    = 15.42061727
ECCENTRICITY   = .00011037
INCLINATION    = 53.1587
RA_OF_ASC_NODE = 192.8517
ARG_OF_PERICENTER = 77.3283
MEAN_ANOMALY   = 262.6034

EPHEMERIS_TYPE = 0
CLASSIFICATION_TYPE = U
NORAD_CAT_ID   = 66135
ELEMENT_SET_NO = 999
REV_AT_EPOCH   = 583
BSTAR          = -.59881073E-1
MEAN_MOTION_DOT = -.2318759E-1
MEAN_MOTION_DDOT = 0

CCSDS_OMM_VERS = 2.0
CREATION_DATE  = 
ORIGINATOR     = 

OBJECT_NAME    = STARLINK-35592
OBJECT_ID      = 2025-237Y
CENTER_NAME    = EARTH
REF_FRAME      = TEME
TIME_SYSTEM    = UTC
MEAN_ELEMENT_THEORY = SGP/SGP4

EPOCH          = 2025-11-19T22:41:45.062880
MEAN_MOTION    = 15.49363715
ECCENTRICITY   = .00015758
INCLINATION    = 53.1601
RA_OF_ASC_NODE = 194.6589
ARG_OF_PERICENTER = 102.6642
MEAN_ANOMALY   = 257.4543

EPHEMERIS_TYPE = 0
CLASSIFICATION_TYPE = U
NORAD_CAT_ID   = 66136
ELEMENT_SET_NO = 999
REV_AT_EPOCH   = 573
BSTAR          = .14915056E-2
MEAN_MOTION_DOT = .83557E-3
MEAN_MOTION_DDOT = 0

CCSDS_OMM_VERS = 2.0
CREATION_DATE  = 
ORIGINATOR     = 

OBJECT_NAME    = STARLINK-35576
OBJECT_ID      = 2025-237Z
CENTER_NAME    = EARTH
REF_FRAME      = TEME
TIME_SYSTEM    = UTC
MEAN_ELEMENT_THEORY = SGP/SGP4

EPOCH          = 2025-11-19T22:41:15.384480
MEAN_MOTION    = 15.49360360
ECCENTRICITY   = .00014985
INCLINATION    = 53.1594
RA_OF_ASC_NODE = 194.6559
ARG_OF_PERICENTER = 101.5341
MEAN_ANOMALY   = 258.5836

EPHEMERIS_TYPE = 0
CLASSIFICATION_TYPE = U
NORAD_CAT_ID   = 66137
ELEMENT_SET_NO = 999
REV_AT_EPOCH   = 573
BSTAR          = .14571801E-2
MEAN_MOTION_DOT = .81593E-3
MEAN_MOTION_DDOT = 0

