STARLINK-35658          
1 66126U 25237N   25323.36852399  .00068928  00000+0  12353-2 0  9998
2 66126  53.1600 197.4580 0001363  87.4361 272.6804 15.49335063  5647
STARLINK-35629          
1 66127U 25237P   25324.01325810  .00065660  00000+0  11768-2 0  9994
2 66127  53.1596 194.3727 0000720 116.6150 243.4933 15.49354741  5742
STARLINK-35612          
1 66128U 25237Q   25323.91471770  .00035664  00000+0  89720-3 0  9995
2 66128  53.1595 195.1803 0001220  92.9555 267.1589 15.39627368  5722
STARLINK-35632          
1 66129U 25237R   25324.03990238  .00039077  00000+0  98118-3 0  9998
2 66129  53.1632 194.5393 0000804  88.0667 272.0430 15.39642320  5746
STARLINK-35637          
1 66130U 25237S   25324.33335648  .00007817  00000+0  20529-3 0  9999
2 66130  53.1597 193.1048 0001016  85.7208 127.5598 15.39608516  5873
STARLINK-35630          
1 66131U 25237T   25324.33335648  .00006664  00000+0  17648-3 0  9997
2 66131  53.1594 193.0540 0000924  97.1157 141.9121 15.39609157  5878
STARLINK-34412          
1 66132U 25237U   25324.33335648  .00005607  00000+0  15009-3 0  9993
2 66132  53.1590 193.0029 0001231 101.6455 163.1397 15.39610559  5780
STARLINK-35520          
1 66133U 25237V   25324.33335648  .00006671  00000+0  17659-3 0  9999
2 66133  53.1586 192.9515 0000928 131.1161 159.3566 15.39622170  5875
STARLINK-35525          
1 66134U 25237W   25324.33335648  .00020827  00000+0  52972-3 0  9996
2 66134  53.1586 192.9011 0000937 101.7564 214.5513 15.39591438  5875
STARLINK-34852          
1 66135U 25237X   25324.33335648 -.02318759  00000+0 -59881-1 0  9999
2 66135  53.1587 192.8517 0001103  77.3283 262.6034 15.42061727  5834
STARLINK-35592          
1 66136U 25237Y   25323.94566045  .00083557  00000+0  14915-2 0  9994
2 66136  53.1601 194.6589 0001575 102.6642 257.4543 15.49363715  5730
STARLINK-35576          
1 66137U 25237Z   25323.94531695  .00081593  00000+0  14572-2 0  9995
2 66137  53.1594 194.6559 0001498 101.5341 258.5836 15.49360360  5737
